{"type":"FeatureCollection","name":"Layer1","features":[{"type":"Feature","properties":{"NAME":"bk girls hostel","AREA":0.0,"PERIMETER":0.0,"REMARKS":"bk girls hostel"},"geometry":{"type":"Polygon","coordinates":[[[7.45186,10.612701667,642.1],[7.45186,10.612701667,642.1]]]}},{"type":"Feature","properties":{"NAME":"AFIT Stadium","AREA":0.0,"PERIMETER":0.0,"REMARKS":""},"geometry":{"type":"Polygon","coordinates":[[[7.450541667,10.613156667,645.1],[7.450541667,10.613156667,645.1]]]}},{"type":"Feature","properties":{"NAME":"old girls hostel","AREA":0.0,"PERIMETER":0.0,"REMARKS":""},"geometry":{"type":"Polygon","coordinates":[[[7.44703,10.613306667,653.5],[7.44703,10.613306667,653.5]]]}},{"type":"Feature","properties":{"NAME":"AFIT Clinic","AREA":0.0,"PERIMETER":0.0,"REMARKS":""},"geometry":{"type":"Polygon","coordinates":[[[7.446498333,10.612703333,653.8],[7.446498333,10.612703333,653.8]]]}},{"type":"Feature","properties":{"NAME":"AFIT Laboratory","AREA":0.0,"PERIMETER":0.0,"REMARKS":""},"geometry":{"type":"Polygon","coordinates":[[[7.446003333,10.612015,656.6],[7.446003333,10.612015,656.6]]]}},{"type":"Feature","properties":{"NAME":"Bush Cateen","AREA":0.0,"PERIMETER":0.0,"REMARKS":""},"geometry":{"type":"Polygon","coordinates":[[[7.444506667,10.61057,659.8],[7.444506667,10.61057,659.8]]]}},{"type":"Feature","properties":{"NAME":"Civil Engineering Department","AREA":0.0,"PERIMETER":0.0,"REMARKS":""},"geometry":{"type":"Polygon","coordinates":[[[7.443325,10.60985,658.1],[7.443325,10.60985,658.1]]]}},{"type":"Feature","properties":{"NAME":"Love Garden","AREA":0.0,"PERIMETER":0.0,"REMARKS":""},"geometry":{"type":"Polygon","coordinates":[[[7.44279,10.609785,659.5],[7.44279,10.609785,659.5]]]}},{"type":"Feature","properties":{"NAME":"Hangar","AREA":0.0,"PERIMETER":0.0,"REMARKS":""},"geometry":{"type":"Polygon","coordinates":[[[7.442641667,10.609201667,664.7],[7.442641667,10.609201667,664.7]]]}},{"type":"Feature","properties":{"NAME":"Yisa Doko Hall","AREA":0.0,"PERIMETER":0.0,"REMARKS":""},"geometry":{"type":"Polygon","coordinates":[[[7.442001667,10.608495,664.7],[7.442001667,10.608495,664.7]]]}},{"type":"Feature","properties":{"NAME":"Head Quarters","AREA":0.0,"PERIMETER":0.0,"REMARKS":""},"geometry":{"type":"Polygon","coordinates":[[[7.441823333,10.608265,663.9],[7.441823333,10.608265,663.9]]]}},{"type":"Feature","properties":{"NAME":"GSU","AREA":0.0,"PERIMETER":0.0,"REMARKS":""},"geometry":{"type":"Polygon","coordinates":[[[7.441866667,10.609306667,665.8],[7.441866667,10.609306667,665.8]]]}},{"type":"Feature","properties":{"NAME":"AFIT Library","AREA":0.0,"PERIMETER":0.0,"REMARKS":""},"geometry":{"type":"Polygon","coordinates":[[[7.441911667,10.609708333,668.0],[7.441911667,10.609708333,668.0]]]}},{"type":"Feature","properties":{"NAME":"200 LVL LR","AREA":0.0,"PERIMETER":0.0,"REMARKS":""},"geometry":{"type":"Polygon","coordinates":[[[7.441291667,10.60934,669.2],[7.441291667,10.60934,669.2]]]}},{"type":"Feature","properties":{"NAME":"IBRAHIM ALFA HALL","AREA":0.0,"PERIMETER":0.0,"REMARKS":""},"geometry":{"type":"Polygon","coordinates":[[[7.443576667,10.6091,658.0],[7.443576667,10.6091,658.0]]]}},{"type":"Feature","properties":{"NAME":"TETFUND Girls Hostel","AREA":0.0,"PERIMETER":0.0,"REMARKS":""},"geometry":{"type":"Polygon","coordinates":[[[7.444836667,10.608468333,653.9],[7.444836667,10.608468333,653.9]]]}},{"type":"Feature","properties":{"NAME":"Faculty of Science","AREA":0.0,"PERIMETER":0.0,"REMARKS":""},"geometry":{"type":"Polygon","coordinates":[[[7.444746667,10.609171667,654.9],[7.444746667,10.609171667,654.9]]]}},{"type":"Feature","properties":{"NAME":"Faculty of Social Science","AREA":0.0,"PERIMETER":0.0,"REMARKS":""},"geometry":{"type":"Polygon","coordinates":[[[7.445218333,10.60945,653.0],[7.445218333,10.60945,653.0]]]}},{"type":"Feature","properties":{"NAME":"Faculty of Computing","AREA":0.0,"PERIMETER":0.0,"REMARKS":""},"geometry":{"type":"Polygon","coordinates":[[[7.446113333,10.610311667,651.7],[7.446113333,10.610311667,651.7]]]}},{"type":"Feature","properties":{"NAME":"AFIT Sports Complex","AREA":0.0,"PERIMETER":0.0,"REMARKS":""},"geometry":{"type":"Polygon","coordinates":[[[7.44785,10.611195,649.4],[7.44785,10.611195,649.4]]]}},{"type":"Feature","properties":{"NAME":"Mechatronics Classes","AREA":0.0,"PERIMETER":0.0,"REMARKS":""},"geometry":{"type":"Polygon","coordinates":[[[7.441906667,10.612046667,682.6],[7.441906667,10.612046667,682.6]]]}},{"type":"Feature","properties":{"NAME":"Faculty of Air Engineering","AREA":0.0,"PERIMETER":0.0,"REMARKS":""},"geometry":{"type":"Polygon","coordinates":[[[7.441031667,10.611781667,666.8],[7.441031667,10.611781667,666.8]]]}},{"type":"Feature","properties":{"NAME":"100 LEVEL LR","AREA":0.0,"PERIMETER":0.0,"REMARKS":""},"geometry":{"type":"Polygon","coordinates":[[[7.440078333,10.611555,670.5],[7.440078333,10.611555,670.5],[7.440078333,10.611555,670.5]]]}},{"type":"Feature","properties":{"NAME":"Faculty of Ground Engineering/EEED","AREA":0.0,"PERIMETER":0.0,"REMARKS":""},"geometry":{"type":"Polygon","coordinates":[[[7.440545,10.610545,669.6],[7.440545,10.610545,669.6]]]}},{"type":"Feature","properties":{"NAME":"School of Post Graduate Studies","AREA":0.0,"PERIMETER":0.0,"REMARKS":""},"geometry":{"type":"Polygon","coordinates":[[[7.439733333,10.610465,669.0],[7.439733333,10.610465,669.0]]]}},{"type":"Feature","properties":{"NAME":"Oladayo Amao Hall","AREA":0.0,"PERIMETER":0.0,"REMARKS":""},"geometry":{"type":"Polygon","coordinates":[[[7.44019,10.609996667,670.3],[7.44019,10.609996667,670.3]]]}},{"type":"Feature","properties":{"NAME":"AFIT Gate","AREA":0.0,"PERIMETER":0.0,"REMARKS":""},"geometry":{"type":"Polygon","coordinates":[[[7.439121667,10.608128333,662.4],[7.439121667,10.608128333,662.4]]]}}]}